[{"OBJECT_NAME":"STARLINK-31695","OBJECT_ID":"2024-062C","EPOCH":"2026-03-09T20:03:13.632480","MEAN_MOTION":15.3018947,"ECCENTRICITY":0.00013183,"INCLINATION":53.1605,"RA_OF_ASC_NODE":254.9954,"ARG_OF_PERICENTER":85.3607,"MEAN_ANOMALY":274.7545,"EPHEMERIS_TYPE":0,"CLASSIFICATION_TYPE":"U","NORAD_CAT_ID":59376,"ELEMENT_SET_NO":999,"REV_AT_EPOCH":10965,"BSTAR":1.6423686e-5,"MEAN_MOTION_DOT":1.27e-6,"MEAN_MOTION_DDOT":0},{"OBJECT_NAME":"GEOSCAN 5 (RS92S5)","OBJECT_ID":"2025-155R","EPOCH":"2026-03-09T22:01:07.273920","MEAN_MOTION":15.30265233,"ECCENTRICITY":0.00070849,"INCLINATION":97.4462,"RA_OF_ASC_NODE":37.7456,"ARG_OF_PERICENTER":154.5846,"MEAN_ANOMALY":205.5745,"EPHEMERIS_TYPE":0,"CLASSIFICATION_TYPE":"U","NORAD_CAT_ID":64891,"ELEMENT_SET_NO":999,"REV_AT_EPOCH":6562,"BSTAR":0.00068639307,"MEAN_MOTION_DOT":0.00020065,"MEAN_MOTION_DDOT":0}]
